CCSDS_OMM_VERS = 2.0
CREATION_DATE  = 
ORIGINATOR     = 

OBJECT_NAME    = SL-16 R/B
OBJECT_ID      = 1993-016B
CENTER_NAME    = EARTH
REF_FRAME      = TEME
TIME_SYSTEM    = UTC
MEAN_ELEMENT_THEORY = SGP/SGP4

EPOCH          = 2025-12-26T06:36:29.286144
MEAN_MOTION    = 14.15293420
ECCENTRICITY   = .00080433
INCLINATION    = 71.0084
RA_OF_ASC_NODE = 9.3743
ARG_OF_PERICENTER = 70.6763
MEAN_ANOMALY   = 289.5229

EPHEMERIS_TYPE = 0
CLASSIFICATION_TYPE = U
NORAD_CAT_ID   = 22566
ELEMENT_SET_NO = 999
REV_AT_EPOCH   = 69178
BSTAR          = .15435563E-3
MEAN_MOTION_DOT = .253E-5
MEAN_MOTION_DDOT = 0

CCSDS_OMM_VERS = 2.0
CREATION_DATE  = 
ORIGINATOR     = 

OBJECT_NAME    = COSMOS 2242
OBJECT_ID      = 1993-024A
CENTER_NAME    = EARTH
REF_FRAME      = TEME
TIME_SYSTEM    = UTC
MEAN_ELEMENT_THEORY = SGP/SGP4

EPOCH          = 2025-12-26T05:06:05.816448
MEAN_MOTION    = 14.96161115
ECCENTRICITY   = .00160052
INCLINATION    = 82.5196
RA_OF_ASC_NODE = 336.9663
ARG_OF_PERICENTER = 186.2392
MEAN_ANOMALY   = 173.8633

EPHEMERIS_TYPE = 0
CLASSIFICATION_TYPE = U
NORAD_CAT_ID   = 22626
ELEMENT_SET_NO = 999
REV_AT_EPOCH   = 76940
BSTAR          = .22578385E-3
MEAN_MOTION_DOT = .2574E-4
MEAN_MOTION_DDOT = 0

CCSDS_OMM_VERS = 2.0
CREATION_DATE  = 
ORIGINATOR     = 

OBJECT_NAME    = SL-16 R/B
OBJECT_ID      = 1993-059B
CENTER_NAME    = EARTH
REF_FRAME      = TEME
TIME_SYSTEM    = UTC
MEAN_ELEMENT_THEORY = SGP/SGP4

EPOCH          = 2025-12-26T05:07:07.957920
MEAN_MOTION    = 14.17216604
ECCENTRICITY   = .00186279
INCLINATION    = 70.9885
RA_OF_ASC_NODE = 166.0736
ARG_OF_PERICENTER = 316.6610
MEAN_ANOMALY   = 43.3048

EPHEMERIS_TYPE = 0
CLASSIFICATION_TYPE = U
NORAD_CAT_ID   = 22803
ELEMENT_SET_NO = 999
REV_AT_EPOCH   = 66912
BSTAR          = .1741912E-3
MEAN_MOTION_DOT = .304E-5
MEAN_MOTION_DDOT = 0

CCSDS_OMM_VERS = 2.0
CREATION_DATE  = 
ORIGINATOR     = 

OBJECT_NAME    = ARIANE 40 R/B
OBJECT_ID      = 1993-061H
CENTER_NAME    = EARTH
REF_FRAME      = TEME
TIME_SYSTEM    = UTC
MEAN_ELEMENT_THEORY = SGP/SGP4

EPOCH          = 2025-12-26T03:58:55.362720
MEAN_MOTION    = 14.32810181
ECCENTRICITY   = .00115551
INCLINATION    = 98.5059
RA_OF_ASC_NODE = 65.4506
ARG_OF_PERICENTER = 138.1483
MEAN_ANOMALY   = 222.0586

EPHEMERIS_TYPE = 0
CLASSIFICATION_TYPE = U
NORAD_CAT_ID   = 22830
ELEMENT_SET_NO = 999
REV_AT_EPOCH   = 68357
BSTAR          = .11149368E-3
MEAN_MOTION_DOT = .261E-5
MEAN_MOTION_DDOT = 0

CCSDS_OMM_VERS = 2.0
CREATION_DATE  = 
ORIGINATOR     = 

OBJECT_NAME    = COSMOS 2278
OBJECT_ID      = 1994-023A
CENTER_NAME    = EARTH
REF_FRAME      = TEME
TIME_SYSTEM    = UTC
MEAN_ELEMENT_THEORY = SGP/SGP4

EPOCH          = 2025-12-26T04:27:38.059488
MEAN_MOTION    = 14.14348720
ECCENTRICITY   = .000777
INCLINATION    = 71.0535
RA_OF_ASC_NODE = 328.8783
ARG_OF_PERICENTER = 155.4140
MEAN_ANOMALY   = 204.7355

EPHEMERIS_TYPE = 0
CLASSIFICATION_TYPE = U
NORAD_CAT_ID   = 23087
ELEMENT_SET_NO = 999
REV_AT_EPOCH   = 63441
BSTAR          = .78874753E-4
MEAN_MOTION_DOT = .104E-5
MEAN_MOTION_DDOT = 0

CCSDS_OMM_VERS = 2.0
CREATION_DATE  = 
ORIGINATOR     = 

OBJECT_NAME    = SL-16 R/B
OBJECT_ID      = 1994-023B
CENTER_NAME    = EARTH
REF_FRAME      = TEME
TIME_SYSTEM    = UTC
MEAN_ELEMENT_THEORY = SGP/SGP4

EPOCH          = 2025-12-26T01:17:17.621952
MEAN_MOTION    = 14.14999304
ECCENTRICITY   = .00021089
INCLINATION    = 70.9975
RA_OF_ASC_NODE = 225.5270
ARG_OF_PERICENTER = 2.7967
MEAN_ANOMALY   = 357.3167

EPHEMERIS_TYPE = 0
CLASSIFICATION_TYPE = U
NORAD_CAT_ID   = 23088
ELEMENT_SET_NO = 999
REV_AT_EPOCH   = 63567
BSTAR          = -.92517266E-4
MEAN_MOTION_DOT = -.227E-5
MEAN_MOTION_DDOT = 0

CCSDS_OMM_VERS = 2.0
CREATION_DATE  = 
ORIGINATOR     = 

OBJECT_NAME    = SL-16 R/B
OBJECT_ID      = 1994-074B
CENTER_NAME    = EARTH
REF_FRAME      = TEME
TIME_SYSTEM    = UTC
MEAN_ELEMENT_THEORY = SGP/SGP4

EPOCH          = 2025-12-26T07:53:35.073888
MEAN_MOTION    = 14.79304560
ECCENTRICITY   = .00080398
INCLINATION    = 97.7189
RA_OF_ASC_NODE = 29.0925
ARG_OF_PERICENTER = 98.6749
MEAN_ANOMALY   = 272.1119

EPHEMERIS_TYPE = 0
CLASSIFICATION_TYPE = U
NORAD_CAT_ID   = 23343
ELEMENT_SET_NO = 999
REV_AT_EPOCH   = 67640
BSTAR          = .72913273E-4
MEAN_MOTION_DOT = .493E-5
MEAN_MOTION_DDOT = 0

CCSDS_OMM_VERS = 2.0
CREATION_DATE  = 
ORIGINATOR     = 

OBJECT_NAME    = SL-16 R/B
OBJECT_ID      = 1994-077B
CENTER_NAME    = EARTH
REF_FRAME      = TEME
TIME_SYSTEM    = UTC
MEAN_ELEMENT_THEORY = SGP/SGP4

EPOCH          = 2025-12-25T20:26:54.546144
MEAN_MOTION    = 14.15552036
ECCENTRICITY   = .00050464
INCLINATION    = 70.9822
RA_OF_ASC_NODE = 147.8288
ARG_OF_PERICENTER = 274.6288
MEAN_ANOMALY   = 85.4258

EPHEMERIS_TYPE = 0
CLASSIFICATION_TYPE = U
NORAD_CAT_ID   = 23405
ELEMENT_SET_NO = 999
REV_AT_EPOCH   = 60578
BSTAR          = -.78941191E-4
MEAN_MOTION_DOT = -.202E-5
MEAN_MOTION_DDOT = 0

CCSDS_OMM_VERS = 2.0
CREATION_DATE  = 
ORIGINATOR     = 

OBJECT_NAME    = ARIANE 40+ R/B
OBJECT_ID      = 1995-021B
CENTER_NAME    = EARTH
REF_FRAME      = TEME
TIME_SYSTEM    = UTC
MEAN_ELEMENT_THEORY = SGP/SGP4

EPOCH          = 2025-12-26T05:18:08.504928
MEAN_MOTION    = 14.39705545
ECCENTRICITY   = .00067565
INCLINATION    = 98.4633
RA_OF_ASC_NODE = 67.6463
ARG_OF_PERICENTER = 12.2510
MEAN_ANOMALY   = 56.8220

EPHEMERIS_TYPE = 0
CLASSIFICATION_TYPE = U
NORAD_CAT_ID   = 23561
ELEMENT_SET_NO = 999
REV_AT_EPOCH   = 60867
BSTAR          = .11990961E-3
MEAN_MOTION_DOT = .332E-5
MEAN_MOTION_DDOT = 0

CCSDS_OMM_VERS = 2.0
CREATION_DATE  = 
ORIGINATOR     = 

OBJECT_NAME    = SL-16 R/B
OBJECT_ID      = 1995-058B
CENTER_NAME    = EARTH
REF_FRAME      = TEME
TIME_SYSTEM    = UTC
MEAN_ELEMENT_THEORY = SGP/SGP4

EPOCH          = 2025-12-26T05:00:32.592384
MEAN_MOTION    = 14.15481339
ECCENTRICITY   = .00145958
INCLINATION    = 71.0217
RA_OF_ASC_NODE = 334.5257
ARG_OF_PERICENTER = 237.4892
MEAN_ANOMALY   = 122.4821

EPHEMERIS_TYPE = 0
CLASSIFICATION_TYPE = U
NORAD_CAT_ID   = 23705
ELEMENT_SET_NO = 999
REV_AT_EPOCH   = 55745
BSTAR          = -.33865929E-4
MEAN_MOTION_DOT = -.114E-5
MEAN_MOTION_DDOT = 0

CCSDS_OMM_VERS = 2.0
CREATION_DATE  = 
ORIGINATOR     = 

OBJECT_NAME    = SL-16 R/B
OBJECT_ID      = 1996-051B
CENTER_NAME    = EARTH
REF_FRAME      = TEME
TIME_SYSTEM    = UTC
MEAN_ELEMENT_THEORY = SGP/SGP4

EPOCH          = 2025-12-26T03:46:29.802432
MEAN_MOTION    = 14.12397638
ECCENTRICITY   = .00194728
INCLINATION    = 70.7596
RA_OF_ASC_NODE = 330.8823
ARG_OF_PERICENTER = 244.9044
MEAN_ANOMALY   = 115.0056

EPHEMERIS_TYPE = 0
CLASSIFICATION_TYPE = U
NORAD_CAT_ID   = 24298
ELEMENT_SET_NO = 999
REV_AT_EPOCH   = 51126
BSTAR          = .20996161E-4
MEAN_MOTION_DOT = -.11E-6
MEAN_MOTION_DDOT = 0

CCSDS_OMM_VERS = 2.0
CREATION_DATE  = 
ORIGINATOR     = 

OBJECT_NAME    = ORBVIEW 2 (SEASTAR)
OBJECT_ID      = 1997-037A
CENTER_NAME    = EARTH
REF_FRAME      = TEME
TIME_SYSTEM    = UTC
MEAN_ELEMENT_THEORY = SGP/SGP4

EPOCH          = 2025-12-26T00:28:44.359104
MEAN_MOTION    = 14.35426208
ECCENTRICITY   = .00012149
INCLINATION    = 98.8463
RA_OF_ASC_NODE = 157.4292
ARG_OF_PERICENTER = 282.0418
MEAN_ANOMALY   = 78.0630

EPHEMERIS_TYPE = 0
CLASSIFICATION_TYPE = U
NORAD_CAT_ID   = 24883
ELEMENT_SET_NO = 999
REV_AT_EPOCH   = 49790
BSTAR          = .12029377E-3
MEAN_MOTION_DOT = .299E-5
MEAN_MOTION_DDOT = 0

