SL-16 R/B               
1 22566U 93016B   25360.27533896  .00000253  00000+0  15436-3 0  9990
2 22566  71.0084   9.3743 0008043  70.6763 289.5229 14.15293420691782
COSMOS 2242             
1 22626U 93024A   25360.21256732  .00002574  00000+0  22578-3 0  9994
2 22626  82.5196 336.9663 0016005 186.2392 173.8633 14.96161115769402
SL-16 R/B               
1 22803U 93059B   25360.21328655  .00000304  00000+0  17419-3 0  9990
2 22803  70.9885 166.0736 0018627 316.6610  43.3048 14.17216604669128
ARIANE 40 R/B           
1 22830U 93061H   25360.16591855  .00000261  00000+0  11149-3 0  9997
2 22830  98.5059  65.4506 0011555 138.1483 222.0586 14.32810181683577
COSMOS 2278             
1 23087U 94023A   25360.18585717  .00000104  00000+0  78875-4 0  9999
2 23087  71.0535 328.8783 0007770 155.4140 204.7355 14.14348720634411
SL-16 R/B               
1 23088U 94023B   25360.05367618 -.00000227  00000+0 -92517-4 0  9991
2 23088  70.9975 225.5270 0002108   2.7967 357.3167 14.14999304635678
SL-16 R/B               
1 23343U 94074B   25360.32887817  .00000493  00000+0  72913-4 0  9990
2 23343  97.7189  29.0925 0008039  98.6749 272.1119 14.79304560676403
SL-16 R/B               
1 23405U 94077B   25359.85202021 -.00000202  00000+0 -78941-4 0  9993
2 23405  70.9822 147.8288 0005046 274.6288  85.4258 14.15552036605784
ARIANE 40+ R/B          
1 23561U 95021B   25360.22093177  .00000332  00000+0  11991-3 0  9992
2 23561  98.4633  67.6463 0006756  12.2510  56.8220 14.39705545608672
SL-16 R/B               
1 23705U 95058B   25360.20871056 -.00000114  00000+0 -33866-4 0  9996
2 23705  71.0217 334.5257 0014595 237.4892 122.4821 14.15481339557450
SL-16 R/B               
1 24298U 96051B   25360.15728938 -.00000011  00000+0  20996-4 0  9997
2 24298  70.7596 330.8823 0019472 244.9044 115.0056 14.12397638511265
ORBVIEW 2 (SEASTAR)     
1 24883U 97037A   25360.01995786  .00000299  00000+0  12029-3 0  9998
2 24883  98.8463 157.4292 0001214 282.0418  78.0630 14.35426208497906
